*******************************************************************************
JPL/HORIZONS                 148209 (2000 CR105)           2020-Nov-19 18:27:58
Rec #:  148209 (+COV) Soln.date: 2017-Apr-11_09:06:30     # obs: 57 (2000-2015)
 
IAU76/J2000 helio. ecliptic osc. elements (au, days, deg., period=Julian yrs):
 
  EPOCH=  2452568.5 ! 2002-Oct-21.00 (TDB)         Residual RMS= .34976
   EC= .8101203941191472   QR= 44.18666397359088   TP= 2438956.9902326623
   OM= 128.2558957707962   W=  317.0700329248958   IN= 22.69905823345664
   A= 232.7088460533117    MA= 3.779123059976593   ADIST= 421.2310281330325
   PER= 3549.99346         N= .000277642           ANGMOM= .153844077
   DAN= 50.20413           DDN= 196.59593          L= 87.6203462
   B= -15.2381544          MOID= 43.23839951       TP= 1965-Jul-15.4902326623
 
Asteroid physical parameters (km, seconds, rotational period in hours):
   GM= n.a.                RAD= n.a.               ROTPER= n.a.
   H= 6.3                  G= .150                 B-V= n.a.
                           ALBEDO= n.a.            STYP= n.a.
 
ASTEROID comments: 
1: soln ref.= JPL#4, OCC=3
2: source=ORB
*******************************************************************************
 
 
*******************************************************************************
Ephemeris / WWW_USER Thu Nov 19 18:27:58 2020 Pasadena, USA      / Horizons
*******************************************************************************
Target body name: 148209 (2000 CR105)             {source: JPL#4}
Center body name: Sun (10)                        {source: DE431}
Center-site name: BODY CENTER
*******************************************************************************
Start time      : A.D. 2020-Nov-19 00:00:00.0000 TDB
Stop  time      : A.D. 2020-Dec-19 00:00:00.0000 TDB
Step-size       : 1440 minutes
*******************************************************************************
Center geodetic : 0.00000000,0.00000000,0.0000000 {E-lon(deg),Lat(deg),Alt(km)}
Center cylindric: 0.00000000,0.00000000,0.0000000 {E-lon(deg),Dxy(km),Dz(km)}
Center radii    : 696000.0 x 696000.0 x 696000.0 k{Equator, meridian, pole}    
Small perturbers: Yes                             {source: SB431-N16}
Output units    : AU-D
Output type     : GEOMETRIC cartesian states
Output format   : 3 (position, velocity, LT, range, range-rate)
Reference frame : Ecliptic of J2000.0
*******************************************************************************
Initial IAU76/J2000 heliocentric ecliptic osculating elements (au, days, deg.):
  EPOCH=  2452568.5 ! 2002-Oct-21.00 (TDB)         Residual RMS= .34976        
   EC= .8101203941191472   QR= 44.18666397359088   TP= 2438956.9902326623      
   OM= 128.2558957707962   W=  317.0700329248958   IN= 22.69905823345664       
  Equivalent ICRF heliocentric equatorial cartesian coordinates (au, au/d):
   X=-3.999848117316695E+01  Y= 3.153301615255274E+01  Z= 1.782274695174342E+01
  VX=-2.635710856247728E-03 VY=-1.543213463039231E-03 VZ= 6.061534102545639E-04
Asteroid physical parameters (km, seconds, rotational period in hours):        
   GM= n.a.                RAD= n.a.               ROTPER= n.a.                
   H= 6.3                  G= .150                 B-V= n.a.                   
                           ALBEDO= n.a.            STYP= n.a.                  
*******************************************************************************
JDTDB
   X     Y     Z
   VX    VY    VZ
   LT    RG    RR
*******************************************************************************
$$SOE
2459172.500000000 = A.D. 2020-Nov-19 00:00:00.0000 TDB 
 X =-5.574935548480616E+01 Y = 2.708755640165636E+01 Z = 1.131573826612625E+01
 VX=-2.147754742951066E-03 VY=-1.485610485626971E-03 VZ= 1.096734475404054E-03
 LT= 3.638930525615433E-01 RG= 6.300612891847645E+01 RR= 1.458663572692583E-03
2459173.500000000 = A.D. 2020-Nov-20 00:00:00.0000 TDB 
 X =-5.575150320915113E+01 Y = 2.708607077938751E+01 Z = 1.131683499389198E+01
 VX=-2.147693946846567E-03 VY=-1.485634043521610E-03 VZ= 1.096721056514599E-03
 LT= 3.639014771783652E-01 RG= 6.300758759566151E+01 RR= 1.458690799836748E-03
2459174.500000000 = A.D. 2020-Nov-21 00:00:00.0000 TDB 
 X =-5.575365087269991E+01 Y = 2.708458513358618E+01 Z = 1.131793170824018E+01
 VX=-2.147633150904531E-03 VY=-1.485657550848043E-03 VZ= 1.096707640323090E-03
 LT= 3.639099019524814E-01 RG= 6.300904630008121E+01 RR= 1.458718042203286E-03
2459175.500000000 = A.D. 2020-Nov-22 00:00:00.0000 TDB 
 X =-5.575579847545374E+01 Y = 2.708309946430214E+01 Z = 1.131902840917354E+01
 VX=-2.147572357331181E-03 VY=-1.485681009190895E-03 VZ= 1.096694226845634E-03
 LT= 3.639183268839833E-01 RG= 6.301050503175142E+01 RR= 1.458745301060446E-03
2459176.500000000 = A.D. 2020-Nov-23 00:00:00.0000 TDB 
 X =-5.575794601741601E+01 Y = 2.708161377158362E+01 Z = 1.132012509669477E+01
 VX=-2.147511568049768E-03 VY=-1.485704420067970E-03 VZ= 1.096680816079174E-03
 LT= 3.639267519729695E-01 RG= 6.301196379068917E+01 RR= 1.458772577451775E-03
2459177.500000000 = A.D. 2020-Nov-24 00:00:00.0000 TDB 
 X =-5.576009349859184E+01 Y = 2.708012805547735E+01 Z = 1.132122177080659E+01
 VX=-2.147450784745963E-03 VY=-1.485727784910908E-03 VZ= 1.096667408007236E-03
 LT= 3.639351772195436E-01 RG= 6.301342257691245E+01 RR= 1.458799872245582E-03
2459178.500000000 = A.D. 2020-Nov-25 00:00:00.0000 TDB 
 X =-5.576224091898799E+01 Y = 2.707864231602870E+01 Z = 1.132231843151168E+01
 VX=-2.147390008909030E-03 VY=-1.485751105054707E-03 VZ= 1.096654002604614E-03
 LT= 3.639436026238144E-01 RG= 6.301488139044006E+01 RR= 1.458827186176691E-03
2459179.500000000 = A.D. 2020-Nov-26 00:00:00.0000 TDB 
 X =-5.576438827861259E+01 Y = 2.707715655328172E+01 Z = 1.132341507881268E+01
 VX=-2.147329241867986E-03 VY=-1.485774381733581E-03 VZ= 1.096640599841059E-03
 LT= 3.639520281858941E-01 RG= 6.301634023129140E+01 RR= 1.458854519880837E-03
2459180.500000000 = A.D. 2020-Nov-27 00:00:00.0000 TDB 
 X =-5.576653557747505E+01 Y = 2.707567076727933E+01 Z = 1.132451171271223E+01
 VX=-2.147268484822857E-03 VY=-1.485797616081440E-03 VZ= 1.096627199684146E-03
 LT= 3.639604539058985E-01 RG= 6.301779909948658E+01 RR= 1.458881873922604E-03
2459181.500000000 = A.D. 2020-Nov-28 00:00:00.0000 TDB 
 X =-5.576868281558593E+01 Y = 2.707418495806332E+01 Z = 1.132560833321291E+01
 VX=-2.147207738871398E-03 VY=-1.485820809135580E-03 VZ= 1.096613802101455E-03
 LT= 3.639688797839467E-01 RG= 6.301925799504618E+01 RR= 1.458909248817848E-03
2459182.500000000 = A.D. 2020-Nov-29 00:00:00.0000 TDB 
 X =-5.577082999295684E+01 Y = 2.707269912567451E+01 Z = 1.132670494031729E+01
 VX=-2.147147005031714E-03 VY=-1.485843961842460E-03 VZ= 1.096600407062207E-03
 LT= 3.639773058201605E-01 RG= 6.302071691799134E+01 RR= 1.458936645051498E-03
2459183.500000000 = A.D. 2020-Nov-30 00:00:00.0000 TDB 
 X =-5.577297710960035E+01 Y = 2.707121327015280E+01 Z = 1.132780153402788E+01
 VX=-2.147086284261147E-03 VY=-1.485867075064863E-03 VZ= 1.096587014538439E-03
 LT= 3.639857320146646E-01 RG= 6.302217586834357E+01 RR= 1.458964063091385E-03
2459184.500000000 = A.D. 2020-Dec-01 00:00:00.0000 TDB 
 X =-5.577512416553002E+01 Y = 2.706972739153728E+01 Z = 1.132889811434719E+01
 VX=-2.147025577471600E-03 VY=-1.485890149590078E-03 VZ= 1.096573624505770E-03
 LT= 3.639941583675860E-01 RG= 6.302363484612495E+01 RR= 1.458991503398400E-03
2459185.500000000 = A.D. 2020-Dec-02 00:00:00.0000 TDB 
 X =-5.577727116076025E+01 Y = 2.706824148986628E+01 Z = 1.132999468127771E+01
 VX=-2.146964885542546E-03 VY=-1.485913186137886E-03 VZ= 1.096560236943970E-03
 LT= 3.640025848790549E-01 RG= 6.302509385135794E+01 RR= 1.459018966434665E-03
2459186.500000000 = A.D. 2020-Dec-03 00:00:00.0000 TDB 
 X =-5.577941809530635E+01 Y = 2.706675556517744E+01 Z = 1.133109123482189E+01
 VX=-2.146904209331307E-03 VY=-1.485936185368930E-03 VZ= 1.096546851837240E-03
 LT= 3.640110115492037E-01 RG= 6.302655288406554E+01 RR= 1.459046452669072E-03
2459187.500000000 = A.D. 2020-Dec-04 00:00:00.0000 TDB 
 X =-5.578156496918443E+01 Y = 2.706526961750778E+01 Z = 1.133218777498220E+01
 VX=-2.146843549681482E-03 VY=-1.485959147892693E-03 VZ= 1.096533469174352E-03
 LT= 3.640194383781680E-01 RG= 6.302801194427117E+01 RR= 1.459073962581322E-03
2459188.500000000 = A.D. 2020-Dec-05 00:00:00.0000 TDB 
 X =-5.578371178241151E+01 Y = 2.706378364689371E+01 Z = 1.133328430176106E+01
 VX=-2.146782907429666E-03 VY=-1.485982074275137E-03 VZ= 1.096520088948669E-03
 LT= 3.640278653660858E-01 RG= 6.302947103199877E+01 RR= 1.459101496664591E-03
2459189.500000000 = A.D. 2020-Dec-06 00:00:00.0000 TDB 
 X =-5.578585853500537E+01 Y = 2.706229765337110E+01 Z = 1.133438081516091E+01
 VX=-2.146722283410800E-03 VY=-1.486004965045923E-03 VZ= 1.096506711158055E-03
 LT= 3.640362925130983E-01 RG= 6.303093014727273E+01 RR= 1.459129055427132E-03
2459190.500000000 = A.D. 2020-Dec-07 00:00:00.0000 TDB 
 X =-5.578800522698469E+01 Y = 2.706081163697532E+01 Z = 1.133547731518418E+01
 VX=-2.146661678462382E-03 VY=-1.486027820705143E-03 VZ= 1.096493335804735E-03
 LT= 3.640447198193495E-01 RG= 6.303238929011802E+01 RR= 1.459156639393088E-03
2459191.500000000 = A.D. 2020-Dec-08 00:00:00.0000 TDB 
 X =-5.579015185836894E+01 Y = 2.705932559774123E+01 Z = 1.133657380183333E+01
 VX=-2.146601093427764E-03 VY=-1.486050641729565E-03 VZ= 1.096479962895094E-03
 LT= 3.640531472849864E-01 RG= 6.303384846056011E+01 RR= 1.459184249102685E-03
2459192.500000000 = A.D. 2020-Dec-09 00:00:00.0000 TDB 
 X =-5.579229842917846E+01 Y = 2.705783953570325E+01 Z = 1.133767027511079E+01
 VX=-2.146540529158694E-03 VY=-1.486073428578407E-03 VZ= 1.096466592439454E-03
 LT= 3.640615749101594E-01 RG= 6.303530765862499E+01 RR= 1.459211885111958E-03
